API VERSION: 1.2
API SOURCE: NASA/JPL Horizons API



*******************************************************************************
Ephemeris / API_USER Wed Apr 15 10:18:54 2026 Pasadena, USA      / Horizons
*******************************************************************************
Target body name: Venus (299)                     {source: DE441}
Center body name: Sun (10)                        {source: DE441}
Center-site name: BODY CENTER
*******************************************************************************
Start time      : A.D. 1978-Dec-30 04:53:45.6000 TDB
Stop  time      : A.D. 1979-Jan-01 04:53:45.6000 TDB
Step-size       : 60 minutes
*******************************************************************************
Center geodetic : 0.0, 0.0, 0.0                   {E-lon(deg),Lat(deg),Alt(km)}
Center cylindric: 0.0, 0.0, 0.0                   {E-lon(deg),Dxy(km),Dz(km)}
Center radii    : 695700.0, 695700.0, 695700.0 km {Equator_a, b, pole_c}
Output units    : AU-D
Calendar mode   : Mixed Julian/Gregorian
Output type     : GEOMETRIC cartesian states
Output format   : 3 (position, velocity, LT, range, range-rate)
Reference frame : Ecliptic of J2000.0
*******************************************************************************
            JDTDB,            Calendar Date (TDB),                      X,                      Y,                      Z,                     VX,                     VY,                     VZ,                     LT,                     RG,                     RR,
**************************************************************************************************************************************************************************************************************************************************************************
$$SOE
2443872.704000000, A.D. 1978-Dec-30 04:53:45.6000, -4.602048307611095E-01,  5.506488712832519E-01,  3.406601727503271E-02, -1.559068236563826E-02, -1.307947253187653E-02,  7.221941221383044E-04,  4.149392031322779E-03,  7.184449590848025E-01, -3.740258254538987E-06,
2443872.745666667, A.D. 1978-Dec-30 05:53:45.6000, -4.608541236023614E-01,  5.501035119690088E-01,  3.409608509283982E-02, -1.557537041483085E-02, -1.309777153167788E-02,  7.210609658683649E-04,  4.149391150684541E-03,  7.184448066070185E-01, -3.578674606132098E-06,
2443872.787333333, A.D. 1978-Dec-30 06:53:45.6000, -4.615027779958605E-01,  5.495573905741353E-01,  3.412610567497142E-02, -1.556003687711753E-02, -1.311605239781492E-02,  7.199268099742522E-04,  4.149390308931413E-03,  7.184446608619821E-01, -3.417086391386515E-06,
2443872.829000000, A.D. 1978-Dec-30 07:53:45.6000, -4.621507930426036E-01,  5.490105078547398E-01,  3.415607897980966E-02, -1.554468177414522E-02, -1.313431510442634E-02,  7.187916560578517E-04,  4.149389506064465E-03,  7.184445218498793E-01, -3.255493839392739E-06,
2443872.870666667, A.D. 1978-Dec-30 08:53:45.6000, -4.627981678444896E-01,  5.484628645680075E-01,  3.418600496580373E-02, -1.552930512759259E-02, -1.315255962567751E-02,  7.176555057225205E-04,  4.149388742084714E-03,  7.184443895708859E-01, -3.093897179266959E-06,
2443872.912333333, A.D. 1978-Dec-30 09:53:45.6000, -4.634449015043214E-01,  5.479144614721996E-01,  3.421588359146963E-02, -1.551390695917001E-02, -1.317078593576041E-02,  7.165183605730845E-04,  4.149388016993120E-03,  7.184442640251683E-01, -2.932296640120720E-06,
2443872.954000000, A.D. 1978-Dec-30 10:53:45.6000, -4.640909931258075E-01,  5.473652993266519E-01,  3.424571481539026E-02, -1.549848729061952E-02, -1.318899400889377E-02,  7.153802222158319E-04,  4.149387330790590E-03,  7.184441452128834E-01, -2.770692451081091E-06,
2443872.995666667, A.D. 1978-Dec-30 11:53:45.6000, -4.647364418135626E-01,  5.468153788917737E-01,  3.427549859621547E-02, -1.548304614371482E-02, -1.320718381932305E-02,  7.142410922585152E-04,  4.149386683477974E-03,  7.184440331341780E-01, -2.609084841261083E-06,
2443873.037333333, A.D. 1978-Dec-30 12:53:45.6000, -4.653812466731094E-01,  5.462647009290476E-01,  3.430523489266195E-02, -1.546758354026120E-02, -1.322535534132052E-02,  7.131009723103488E-04,  4.149386075056068E-03,  7.184439277891909E-01, -2.447474039803946E-06,
2443873.079000000, A.D. 1978-Dec-30 13:53:45.6000, -4.660254068108799E-01,  5.457132662010268E-01,  3.433492366351374E-02, -1.545209950209555E-02, -1.324350854918529E-02,  7.119598639820034E-04,  4.149385505525613E-03,  7.184438291780493E-01, -2.285860275845053E-06,
2443873.120666667, A.D. 1978-Dec-30 14:53:45.6000, -4.666689213342168E-01,  5.451610754713350E-01,  3.436456486762195E-02, -1.543659405108626E-02, -1.326164341724331E-02,  7.108177688856054E-04,  4.149384974887294E-03,  7.184437373008724E-01, -2.124243778516475E-06,
2443873.162333333, A.D. 1978-Dec-30 15:53:45.6000, -4.673117893513740E-01,  5.446081295046655E-01,  3.439415846390489E-02, -1.542106720913325E-02, -1.327975991984749E-02,  7.096746886347313E-04,  4.149384483141740E-03,  7.184436521577693E-01, -1.962624776970801E-06,
2443873.204000000, A.D. 1978-Dec-30 16:53:45.6000, -4.679540099715193E-01,  5.440544290667794E-01,  3.442370441134794E-02, -1.540551899816791E-02, -1.329785803137766E-02,  7.085306248444122E-04,  4.149384030289528E-03,  7.184435737488393E-01, -1.801003500356351E-06,
2443873.245666667, A.D. 1978-Dec-30 17:53:45.6000, -4.685955823047345E-01,  5.434999749245044E-01,  3.445320266900411E-02, -1.538994944015305E-02, -1.331593772624066E-02,  7.073855791311230E-04,  4.149383616331177E-03,  7.184435020741725E-01, -1.639380177819127E-06,
2443873.287333333, A.D. 1978-Dec-30 18:53:45.6000, -4.692365054620175E-01,  5.429447678457348E-01,  3.448265319599350E-02, -1.537435855708289E-02, -1.333399897887037E-02,  7.062395531127850E-04,  4.149383241267152E-03,  7.184434371338497E-01, -1.477755038514754E-06,
2443873.329000000, A.D. 1978-Dec-30 19:53:45.6000, -4.698767785552828E-01,  5.423888085994287E-01,  3.451205595150397E-02, -1.535874637098302E-02, -1.335204176372775E-02,  7.050925484087648E-04,  4.149382905097861E-03,  7.184433789279415E-01, -1.316128311611042E-06,
2443873.370666667, A.D. 1978-Dec-30 20:53:45.6000, -4.705164006973637E-01,  5.418320979556085E-01,  3.454141089479062E-02, -1.534311290391035E-02, -1.337006605530087E-02,  7.039445666398609E-04,  4.149382607823660E-03,  7.184433274565092E-01, -1.154500226254839E-06,
2443873.412333333, A.D. 1978-Dec-30 21:53:45.6000, -4.711553710020130E-01,  5.412746366853589E-01,  3.457071798517615E-02, -1.532745817795309E-02, -1.338807182810496E-02,  7.027956094283160E-04,  4.149382349444850E-03,  7.184432827196051E-01, -9.928710116225455E-07,
2443873.454000000, A.D. 1978-Dec-30 22:53:45.6000, -4.717936885839046E-01,  5.407164255608252E-01,  3.459997718205096E-02, -1.531178221523072E-02, -1.340605905668245E-02,  7.016456783978070E-04,  4.149382129961673E-03,  7.184432447172708E-01, -8.312408968596573E-07,
2443873.495666667, A.D. 1978-Dec-30 23:53:45.6000, -4.724313525586348E-01,  5.401574653552139E-01,  3.462918844487328E-02, -1.529608503789393E-02, -1.342402771560301E-02,  7.004947751734459E-04,  4.149381949374318E-03,  7.184432134495395E-01, -6.696101111453319E-07,
2443873.537333333, A.D. 1978-Dec-31 00:53:45.6000, -4.730683620427231E-01,  5.395977568427898E-01,  3.465835173316863E-02, -1.528036666812461E-02, -1.344197777946359E-02,  6.993429013817607E-04,  4.149381807682919E-03,  7.184431889164343E-01, -5.079788836354400E-07,
2443873.579000000, A.D. 1978-Dec-31 01:53:45.6000, -4.737047161536142E-01,  5.390373007988757E-01,  3.468746700653091E-02, -1.526462712813582E-02, -1.345990922288846E-02,  6.981900586507232E-04,  4.149381704887555E-03,  7.184431711179687E-01, -3.463474434910738E-07,
2443873.620666667, A.D. 1978-Dec-31 02:53:45.6000, -4.743404140096792E-01,  5.384760979998516E-01,  3.471653422462142E-02, -1.524886644017172E-02, -1.347782202052924E-02,  6.970362486097204E-04,  4.149381640988249E-03,  7.184431600541472E-01, -1.847160198901441E-07,
2443873.662333333, A.D. 1978-Dec-31 03:53:45.6000, -4.749754547302160E-01,  5.379141492231525E-01,  3.474555334716953E-02, -1.523308462650756E-02, -1.349571614706496E-02,  6.958814728895605E-04,  4.149381615984971E-03,  7.184431557249638E-01, -2.308484198489599E-08,
2443873.704000000, A.D. 1978-Dec-31 04:53:45.6000, -4.756098374354521E-01,  5.373514552472684E-01,  3.477452433397263E-02, -1.521728170944964E-02, -1.351359157720209E-02,  6.947257331224792E-04,  4.149381629877634E-03,  7.184431581304037E-01,  1.385458610492108E-07,
2443873.745666667, A.D. 1978-Dec-31 05:53:45.6000, -4.762435612465445E-01,  5.367880168517420E-01,  3.480344714489615E-02, -1.520145771133529E-02, -1.353144828567457E-02,  6.935690309421178E-04,  4.149381682666096E-03,  7.184431672704423E-01,  3.001758600636825E-07,
2443873.787333333, A.D. 1978-Dec-31 06:53:45.6000, -4.768766252855816E-01,  5.362238348171693E-01,  3.483232173987368E-02, -1.518561265453281E-02, -1.354928624724387E-02,  6.924113679835444E-04,  4.149381774350158E-03,  7.184431831450460E-01,  4.618049258732546E-07,
2443873.829000000, A.D. 1978-Dec-31 07:53:45.6000, -4.775090286755848E-01,  5.356589099251957E-01,  3.486114807890674E-02, -1.516974656144144E-02, -1.356710543669902E-02,  6.912527458832249E-04,  4.149381904929570E-03,  7.184432057541701E-01,  6.234328293477448E-07,
2443873.870666667, A.D. 1978-Dec-31 08:53:45.6000, -4.781407705405092E-01,  5.350932429585179E-01,  3.488992612206528E-02, -1.515385945449133E-02, -1.358490582885663E-02,  6.900931662790438E-04,  4.149382074404025E-03,  7.184432350977623E-01,  7.850593413172831E-07,
2443873.912333333, A.D. 1978-Dec-31 09:53:45.6000, -4.787718500052452E-01,  5.345268347008807E-01,  3.491865582948739E-02, -1.513795135614352E-02, -1.360268739856097E-02,  6.889326308102904E-04,  4.149382282773158E-03,  7.184432711757595E-01,  9.466842326285881E-07,
